{
  "type": "FeatureCollection",
  "features": [
    {
      "type": "Feature",
      "properties": {
        "norad_id": 38857,
        "name": "GSAT0103 (GALILEO-FM3)",
        "group": "gnss",
        "lat": 49.63458461108861,
        "lon": 159.8659276816807,
        "alt_km": 23223.77716383927,
        "timestamp": "2025-12-17T17:50:19.493083+00:00",
        "meta_object_name": "GSAT0103 (GALILEO-FM3)",
        "meta_object_id": "2012-055A",
        "meta_epoch": "2025-12-13T12:39:44.093088",
        "meta_mean_motion": 1.70473367,
        "meta_eccentricity": 0.00026827,
        "meta_inclination": 55.6929,
        "meta_ra_of_asc_node": 106.6448,
        "meta_arg_of_pericenter": 268.8486,
        "meta_mean_anomaly": 91.0883,
        "meta_ephemeris_type": 0,
        "meta_classification_type": "U",
        "meta_norad_cat_id": 38857,
        "meta_element_set_no": 999,
        "meta_rev_at_epoch": 8184,
        "meta_bstar": 0,
        "meta_mean_motion_dot": 1e-08,
        "meta_mean_motion_ddot": 0,
        "tle_line1": "1 38857U 12055A   25347.52759367  .00000001  00000+0  00000+0 0  9998",
        "tle_line2": "2 38857  55.6929 106.6448 0002682 268.8486  91.0883  1.70473367 81846"
      },
      "geometry": {
        "type": "Point",
        "coordinates": [
          159.8659276816807,
          49.63458461108861
        ]
      }
    },
    {
      "type": "Feature",
      "properties": {
        "norad_id": 38953,
        "name": "BEIDOU-2 G6 (C02)",
        "group": "gnss",
        "lat": 0.2186722061719572,
        "lon": 78.24104004580045,
        "alt_km": 35775.769816977954,
        "timestamp": "2025-12-17T17:50:19.493095+00:00",
        "meta_object_name": "BEIDOU-2 G6 (C02)",
        "meta_object_id": "2012-059A",
        "meta_epoch": "2025-12-16T20:36:20.086848",
        "meta_mean_motion": 1.00269484,
        "meta_eccentricity": 0.00080985,
        "meta_inclination": 3.9596,
        "meta_ra_of_asc_node": 75.466,
        "meta_arg_of_pericenter": 291.412,
        "meta_mean_anomaly": 111.9285,
        "meta_ephemeris_type": 0,
        "meta_classification_type": "U",
        "meta_norad_cat_id": 38953,
        "meta_element_set_no": 999,
        "meta_rev_at_epoch": 4808,
        "meta_bstar": 0,
        "meta_mean_motion_dot": -1.53e-06,
        "meta_mean_motion_ddot": 0,
        "tle_line1": "1 38953U 12059A   25350.85856582 -.00000153  00000+0  00000+0 0  9995",
        "tle_line2": "2 38953   3.9596  75.4660 0008098 291.4120 111.9285  1.00269484 48085"
      },
      "geometry": {
        "type": "Point",
        "coordinates": [
          78.24104004580045,
          0.2186722061719572
        ]
      }
    },
    {
      "type": "Feature",
      "properties": {
        "norad_id": 38977,
        "name": "LUCH 5B (SDCM/PRN 125)",
        "group": "gnss",
        "lat": -9.692965395399069,
        "lon": -21.816288197778285,
        "alt_km": 35788.07733969662,
        "timestamp": "2025-12-17T17:50:19.493123+00:00",
        "meta_object_name": "LUCH 5B (SDCM/PRN 125)",
        "meta_object_id": "2012-061A",
        "meta_epoch": "2025-12-16T23:33:05.565888",
        "meta_mean_motion": 1.00272466,
        "meta_eccentricity": 0.0006765,
        "meta_inclination": 10.0904,
        "meta_ra_of_asc_node": 51.6657,
        "meta_arg_of_pericenter": 194.2806,
        "meta_mean_anomaly": 176.8583,
        "meta_ephemeris_type": 0,
        "meta_classification_type": "U",
        "meta_norad_cat_id": 38977,
        "meta_element_set_no": 999,
        "meta_rev_at_epoch": 4778,
        "meta_bstar": 0,
        "meta_mean_motion_dot": -1.22e-06,
        "meta_mean_motion_ddot": 0,
        "tle_line1": "1 38977U 12061A   25350.98131442 -.00000122  00000+0  00000+0 0  9995",
        "tle_line2": "2 38977  10.0904  51.6657 0006765 194.2806 176.8583  1.00272466 47786"
      },
      "geometry": {
        "type": "Point",
        "coordinates": [
          -21.816288197778285,
          -9.692965395399069
        ]
      }
    },
    {
      "type": "Feature",
      "properties": {
        "norad_id": 39155,
        "name": "COSMOS 2485 (747)",
        "group": "gnss",
        "lat": -22.68679785118358,
        "lon": 68.64205846906137,
        "alt_km": 19149.372690196567,
        "timestamp": "2025-12-17T17:50:19.493140+00:00",
        "meta_object_name": "COSMOS 2485 (747)",
        "meta_object_id": "2013-019A",
        "meta_epoch": "2025-12-17T07:21:50.321088",
        "meta_mean_motion": 2.13103137,
        "meta_eccentricity": 0.00247401,
        "meta_inclination": 65.3162,
        "meta_ra_of_asc_node": 79.7134,
        "meta_arg_of_pericenter": 229.9478,
        "meta_mean_anomaly": 129.8522,
        "meta_ephemeris_type": 0,
        "meta_classification_type": "U",
        "meta_norad_cat_id": 39155,
        "meta_element_set_no": 999,
        "meta_rev_at_epoch": 9840,
        "meta_bstar": 0,
        "meta_mean_motion_dot": -4.8e-07,
        "meta_mean_motion_ddot": 0,
        "tle_line1": "1 39155U 13019A   25351.30683242 -.00000048  00000+0  00000+0 0  9992",
        "tle_line2": "2 39155  65.3162  79.7134 0024740 229.9478 129.8522  2.13103137 98408"
      },
      "geometry": {
        "type": "Point",
        "coordinates": [
          68.64205846906137,
          -22.68679785118358
        ]
      }
    },
    {
      "type": "Feature",
      "properties": {
        "norad_id": 39166,
        "name": "GPS BIIF-4  (PRN 27)",
        "group": "gnss",
        "lat": 25.079093848163986,
        "lon": -64.27764838176621,
        "alt_km": 19829.305687771546,
        "timestamp": "2025-12-17T17:50:19.493152+00:00",
        "meta_object_name": "GPS BIIF-4  (PRN 27)",
        "meta_object_id": "2013-023A",
        "meta_epoch": "2025-12-15T04:59:33.811872",
        "meta_mean_motion": 2.00564736,
        "meta_eccentricity": 0.01378529,
        "meta_inclination": 54.65,
        "meta_ra_of_asc_node": 276.4679,
        "meta_arg_of_pericenter": 48.4851,
        "meta_mean_anomaly": 312.7012,
        "meta_ephemeris_type": 0,
        "meta_classification_type": "U",
        "meta_norad_cat_id": 39166,
        "meta_element_set_no": 999,
        "meta_rev_at_epoch": 9219,
        "meta_bstar": 0,
        "meta_mean_motion_dot": -6.8e-07,
        "meta_mean_motion_ddot": 0,
        "tle_line1": "1 39166U 13023A   25349.20803023 -.00000068  00000+0  00000+0 0  9998",
        "tle_line2": "2 39166  54.6500 276.4679 0137852  48.4851 312.7012  2.00564736 92194"
      },
      "geometry": {
        "type": "Point",
        "coordinates": [
          -64.27764838176621,
          25.079093848163986
        ]
      }
    },
    {
      "type": "Feature",
      "properties": {
        "norad_id": 39199,
        "name": "IRNSS-1A",
        "group": "gnss",
        "lat": -9.8601113390187,
        "lon": 52.29978201675085,
        "alt_km": 35858.440342166796,
        "timestamp": "2025-12-17T17:50:19.493163+00:00",
        "meta_object_name": "IRNSS-1A",
        "meta_object_id": "2013-034A",
        "meta_epoch": "2025-12-16T18:45:30.034368",
        "meta_mean_motion": 1.00271882,
        "meta_eccentricity": 0.0023621,
        "meta_inclination": 35.3115,
        "meta_ra_of_asc_node": 66.4956,
        "meta_arg_of_pericenter": 207.6795,
        "meta_mean_anomaly": 147.7415,
        "meta_ephemeris_type": 0,
        "meta_classification_type": "U",
        "meta_norad_cat_id": 39199,
        "meta_element_set_no": 999,
        "meta_rev_at_epoch": 4553,
        "meta_bstar": 0,
        "meta_mean_motion_dot": 6.3e-07,
        "meta_mean_motion_ddot": 0,
        "tle_line1": "1 39199U 13034A   25350.78159762  .00000063  00000+0  00000+0 0  9999",
        "tle_line2": "2 39199  35.3115  66.4956 0023621 207.6795 147.7415  1.00271882 45532"
      },
      "geometry": {
        "type": "Point",
        "coordinates": [
          52.29978201675085,
          -9.8601113390187
        ]
      }
    },
    {
      "type": "Feature",
      "properties": {
        "norad_id": 39533,
        "name": "GPS BIIF-5  (PRN 30)",
        "group": "gnss",
        "lat": 27.244152564100865,
        "lon": 179.0196536082193,
        "alt_km": 20383.84654193062,
        "timestamp": "2025-12-17T17:50:19.493175+00:00",
        "meta_object_name": "GPS BIIF-5  (PRN 30)",
        "meta_object_id": "2014-008A",
        "meta_epoch": "2025-12-17T04:42:21.782016",
        "meta_mean_motion": 2.00574699,
        "meta_eccentricity": 0.00793343,
        "meta_inclination": 53.632,
        "meta_ra_of_asc_node": 156.7429,
        "meta_arg_of_pericenter": 226.5757,
        "meta_mean_anomaly": 132.7662,
        "meta_ephemeris_type": 0,
        "meta_classification_type": "U",
        "meta_norad_cat_id": 39533,
        "meta_element_set_no": 999,
        "meta_rev_at_epoch": 8603,
        "meta_bstar": 0,
        "meta_mean_motion_dot": 7.8e-07,
        "meta_mean_motion_ddot": 0,
        "tle_line1": "1 39533U 14008A   25351.19608544  .00000078  00000+0  00000+0 0  9992",
        "tle_line2": "2 39533  53.6320 156.7429 0079334 226.5757 132.7662  2.00574699 86034"
      },
      "geometry": {
        "type": "Point",
        "coordinates": [
          179.0196536082193,
          27.244152564100865
        ]
      }
    }
  ]
}